STARLINK-31207          
1 59035U 24038N   26068.20026713 -.00000620  00000+0 -13000-4 0  9999
2 59035  43.0042  26.3087 0001010 270.6163  89.4573 15.27575191114780
NUSAT-48 (HENRIETTA LE*)
1 60498U 24149AG  26068.80506098  .00012988  00000+0  45212-3 0  9999
2 60498  97.3923 150.8264 0002754 263.3026  96.7901 15.29812597 86946
